[{"OBJECT_NAME":"GLOBAL-12","OBJECT_ID":"2021-115BA","EPOCH":"2026-03-02T23:30:24.156864","MEAN_MOTION":15.47329713,"ECCENTRICITY":0.0002667,"INCLINATION":53.1958,"RA_OF_ASC_NODE":192.8992,"ARG_OF_PERICENTER":54.9308,"MEAN_ANOMALY":305.1951,"EPHEMERIS_TYPE":0,"CLASSIFICATION_TYPE":"U","NORAD_CAT_ID":49772,"ELEMENT_SET_NO":999,"REV_AT_EPOCH":23942,"BSTAR":0.00067569,"MEAN_MOTION_DOT":0.00034787,"MEAN_MOTION_DDOT":0},{"OBJECT_NAME":"GLOBAL-13","OBJECT_ID":"2021-115BB","EPOCH":"2026-03-02T15:22:54.488352","MEAN_MOTION":15.41784123,"ECCENTRICITY":0.0002545,"INCLINATION":53.1991,"RA_OF_ASC_NODE":199.542,"ARG_OF_PERICENTER":134.219,"MEAN_ANOMALY":225.9026,"EPHEMERIS_TYPE":0,"CLASSIFICATION_TYPE":"U","NORAD_CAT_ID":49773,"ELEMENT_SET_NO":999,"REV_AT_EPOCH":23930,"BSTAR":0.00060159,"MEAN_MOTION_DOT":0.00025528,"MEAN_MOTION_DDOT":0},{"OBJECT_NAME":"GLOBAL-17","OBJECT_ID":"2021-120A","EPOCH":"2026-03-03T03:00:05.849280","MEAN_MOTION":15.46565018,"ECCENTRICITY":0.0011658,"INCLINATION":41.9964,"RA_OF_ASC_NODE":318.7002,"ARG_OF_PERICENTER":234.0408,"MEAN_ANOMALY":125.9353,"EPHEMERIS_TYPE":0,"CLASSIFICATION_TYPE":"U","NORAD_CAT_ID":49949,"ELEMENT_SET_NO":999,"REV_AT_EPOCH":23844,"BSTAR":0.00060998,"MEAN_MOTION_DOT":0.00031005,"MEAN_MOTION_DDOT":0},{"OBJECT_NAME":"GLOBAL-16","OBJECT_ID":"2021-120B","EPOCH":"2026-03-03T01:52:02.769312","MEAN_MOTION":15.44987779,"ECCENTRICITY":0.0009577,"INCLINATION":41.9968,"RA_OF_ASC_NODE":320.9804,"ARG_OF_PERICENTER":225.1116,"MEAN_ANOMALY":134.8949,"EPHEMERIS_TYPE":0,"CLASSIFICATION_TYPE":"U","NORAD_CAT_ID":49950,"ELEMENT_SET_NO":999,"REV_AT_EPOCH":23840,"BSTAR":0.00058883,"MEAN_MOTION_DOT":0.00028295,"MEAN_MOTION_DDOT":0},{"OBJECT_NAME":"XW-3 (CAS-9)","OBJECT_ID":"2021-131B","EPOCH":"2026-03-03T04:28:23.549088","MEAN_MOTION":14.4124029,"ECCENTRICITY":0.0005098,"INCLINATION":98.497,"RA_OF_ASC_NODE":155.1791,"ARG_OF_PERICENTER":65.8927,"MEAN_ANOMALY":294.2795,"EPHEMERIS_TYPE":0,"CLASSIFICATION_TYPE":"U","NORAD_CAT_ID":50466,"ELEMENT_SET_NO":999,"REV_AT_EPOCH":21984,"BSTAR":0.00019284,"MEAN_MOTION_DOT":5.79e-6,"MEAN_MOTION_DDOT":0},{"OBJECT_NAME":"ION SCV-004","OBJECT_ID":"2022-002K","EPOCH":"2026-03-03T03:30:01.529856","MEAN_MOTION":15.29268908,"ECCENTRICITY":0.0007916,"INCLINATION":97.2979,"RA_OF_ASC_NODE":121.8088,"ARG_OF_PERICENTER":24.3297,"MEAN_ANOMALY":335.8316,"EPHEMERIS_TYPE":0,"CLASSIFICATION_TYPE":"U","NORAD_CAT_ID":50993,"ELEMENT_SET_NO":999,"REV_AT_EPOCH":22908,"BSTAR":0.00024065,"MEAN_MOTION_DOT":6.765e-5,"MEAN_MOTION_DDOT":0},{"OBJECT_NAME":"ETV-A1","OBJECT_ID":"2022-002CE","EPOCH":"2026-03-03T04:45:28.478592","MEAN_MOTION":15.38253455,"ECCENTRICITY":0.0005528,"INCLINATION":97.3007,"RA_OF_ASC_NODE":128.9286,"ARG_OF_PERICENTER":24.8695,"MEAN_ANOMALY":335.2815,"EPHEMERIS_TYPE":0,"CLASSIFICATION_TYPE":"U","NORAD_CAT_ID":51060,"ELEMENT_SET_NO":999,"REV_AT_EPOCH":22953,"BSTAR":0.00038394,"MEAN_MOTION_DOT":0.00014405,"MEAN_MOTION_DDOT":0},{"OBJECT_NAME":"BRO-5","OBJECT_ID":"2022-002CF","EPOCH":"2026-03-03T03:55:54.293376","MEAN_MOTION":15.43180469,"ECCENTRICITY":0.0004933,"INCLINATION":97.3108,"RA_OF_ASC_NODE":135.2202,"ARG_OF_PERICENTER":12.7978,"MEAN_ANOMALY":347.3394,"EPHEMERIS_TYPE":0,"CLASSIFICATION_TYPE":"U","NORAD_CAT_ID":51061,"ELEMENT_SET_NO":999,"REV_AT_EPOCH":22988,"BSTAR":0.00033592,"MEAN_MOTION_DOT":0.00014823,"MEAN_MOTION_DDOT":0},{"OBJECT_NAME":"LUDI TANCE 1-01A (L-SAR 01A)","OBJECT_ID":"2022-007A","EPOCH":"2026-03-03T03:56:35.978784","MEAN_MOTION":14.88412863,"ECCENTRICITY":0.000159,"INCLINATION":97.8115,"RA_OF_ASC_NODE":71.0967,"ARG_OF_PERICENTER":90.6472,"MEAN_ANOMALY":269.4927,"EPHEMERIS_TYPE":0,"CLASSIFICATION_TYPE":"U","NORAD_CAT_ID":51284,"ELEMENT_SET_NO":999,"REV_AT_EPOCH":22270,"BSTAR":0.0001086,"MEAN_MOTION_DOT":9.52e-6,"MEAN_MOTION_DDOT":0},{"OBJECT_NAME":"INSPIRESAT 1","OBJECT_ID":"2022-013B","EPOCH":"2026-03-03T01:31:32.473056","MEAN_MOTION":15.76303114,"ECCENTRICITY":0.000489,"INCLINATION":97.4498,"RA_OF_ASC_NODE":109.0235,"ARG_OF_PERICENTER":100.9766,"MEAN_ANOMALY":259.205,"EPHEMERIS_TYPE":0,"CLASSIFICATION_TYPE":"U","NORAD_CAT_ID":51657,"ELEMENT_SET_NO":999,"REV_AT_EPOCH":22583,"BSTAR":0.00089037,"MEAN_MOTION_DOT":0.00141671,"MEAN_MOTION_DDOT":0},{"OBJECT_NAME":"LUDI TANCE 1-01B (L-SAR 01B)","OBJECT_ID":"2022-018A","EPOCH":"2026-03-03T04:44:56.586624","MEAN_MOTION":14.88415737,"ECCENTRICITY":0.000159,"INCLINATION":97.8121,"RA_OF_ASC_NODE":71.1183,"ARG_OF_PERICENTER":90.6645,"MEAN_ANOMALY":269.4754,"EPHEMERIS_TYPE":0,"CLASSIFICATION_TYPE":"U","NORAD_CAT_ID":51822,"ELEMENT_SET_NO":999,"REV_AT_EPOCH":21794,"BSTAR":2.2356e-5,"MEAN_MOTION_DOT":1.53e-6,"MEAN_MOTION_DDOT":0},{"OBJECT_NAME":"2022-019D","OBJECT_ID":"2022-019D","EPOCH":"2026-03-03T04:33:56.841408","MEAN_MOTION":15.5813945,"ECCENTRICITY":0.0007289,"INCLINATION":97.3708,"RA_OF_ASC_NODE":149.9939,"ARG_OF_PERICENTER":164.3646,"MEAN_ANOMALY":195.7836,"EPHEMERIS_TYPE":0,"CLASSIFICATION_TYPE":"U","NORAD_CAT_ID":51827,"ELEMENT_SET_NO":999,"REV_AT_EPOCH":22313,"BSTAR":0.00073005,"MEAN_MOTION_DOT":0.00055212,"MEAN_MOTION_DDOT":0},{"OBJECT_NAME":"JILIN-1 GAOFEN 03D14","OBJECT_ID":"2022-019H","EPOCH":"2026-03-03T04:47:57.765696","MEAN_MOTION":15.76994952,"ECCENTRICITY":0.0004875,"INCLINATION":97.3712,"RA_OF_ASC_NODE":155.013,"ARG_OF_PERICENTER":165.1836,"MEAN_ANOMALY":194.9574,"EPHEMERIS_TYPE":0,"CLASSIFICATION_TYPE":"U","NORAD_CAT_ID":51831,"ELEMENT_SET_NO":999,"REV_AT_EPOCH":22345,"BSTAR":0.001168,"MEAN_MOTION_DOT":0.00192747,"MEAN_MOTION_DDOT":0},{"OBJECT_NAME":"2022-019J","OBJECT_ID":"2022-019J","EPOCH":"2026-03-03T03:59:13.720992","MEAN_MOTION":15.19929062,"ECCENTRICITY":0.0007448,"INCLINATION":97.3556,"RA_OF_ASC_NODE":127.6926,"ARG_OF_PERICENTER":233.0347,"MEAN_ANOMALY":127.0207,"EPHEMERIS_TYPE":0,"CLASSIFICATION_TYPE":"U","NORAD_CAT_ID":51832,"ELEMENT_SET_NO":999,"REV_AT_EPOCH":22169,"BSTAR":0.00012677,"MEAN_MOTION_DOT":2.659e-5,"MEAN_MOTION_DDOT":0},{"OBJECT_NAME":"JILIN-1 GAOFEN 03D16","OBJECT_ID":"2022-019L","EPOCH":"2026-03-03T04:57:08.309088","MEAN_MOTION":15.83044167,"ECCENTRICITY":0.0003963,"INCLINATION":97.3706,"RA_OF_ASC_NODE":156.2766,"ARG_OF_PERICENTER":190.2782,"MEAN_ANOMALY":169.8407,"EPHEMERIS_TYPE":0,"CLASSIFICATION_TYPE":"U","NORAD_CAT_ID":51834,"ELEMENT_SET_NO":999,"REV_AT_EPOCH":22354,"BSTAR":0.0011725,"MEAN_MOTION_DOT":0.00256257,"MEAN_MOTION_DDOT":0},{"OBJECT_NAME":"JILIN-1 GAOFEN 03D11","OBJECT_ID":"2022-019M","EPOCH":"2026-03-02T08:59:32.441856","MEAN_MOTION":15.7445589,"ECCENTRICITY":0.00045135,"INCLINATION":97.3752,"RA_OF_ASC_NODE":154.1406,"ARG_OF_PERICENTER":181.9574,"MEAN_ANOMALY":178.1674,"EPHEMERIS_TYPE":0,"CLASSIFICATION_TYPE":"U","NORAD_CAT_ID":51835,"ELEMENT_SET_NO":999,"REV_AT_EPOCH":22331,"BSTAR":0.001114167,"MEAN_MOTION_DOT":0.00164086,"MEAN_MOTION_DDOT":0}]
