GLOBAL-12               
1 49772U 21115BA  26061.97944626  .00034787  00000+0  67569-3 0  9995
2 49772  53.1958 192.8992 0002667  54.9308 305.1951 15.47329713239428
GLOBAL-13               
1 49773U 21115BB  26061.64090843  .00025528  00000+0  60159-3 0  9994
2 49773  53.1991 199.5420 0002545 134.2190 225.9026 15.41784123239305
GLOBAL-17               
1 49949U 21120A   26062.12506770  .00031005  00000+0  60998-3 0  9998
2 49949  41.9964 318.7002 0011658 234.0408 125.9353 15.46565018238443
GLOBAL-16               
1 49950U 21120B   26062.07780983  .00028295  00000+0  58883-3 0  9991
2 49950  41.9968 320.9804 0009577 225.1116 134.8949 15.44987779238404
XW-3 (CAS-9)            
1 50466U 21131B   26062.18638367  .00000579  00000+0  19284-3 0  9994
2 50466  98.4970 155.1791 0005098  65.8927 294.2795 14.41240290219847
ION SCV-004             
1 50993U 22002K   26062.14585104  .00006765  00000+0  24065-3 0  9999
2 50993  97.2979 121.8088 0007916  24.3297 335.8316 15.29268908229089
ETV-A1                  
1 51060U 22002CE  26062.19824628  .00014405  00000+0  38394-3 0  9997
2 51060  97.3007 128.9286 0005528  24.8695 335.2815 15.38253455229539
BRO-5                   
1 51061U 22002CF  26062.16382284  .00014823  00000+0  33592-3 0  9991
2 51061  97.3108 135.2202 0004933  12.7978 347.3394 15.43180469229884
LUDI TANCE 1-01A (L-SA*)
1 51284U 22007A   26062.16430531  .00000952  00000+0  10860-3 0  9993
2 51284  97.8115  71.0967 0001590  90.6472 269.4927 14.88412863222703
INSPIRESAT 1            
1 51657U 22013B   26062.06357029  .00141671  00000+0  89037-3 0  9999
2 51657  97.4498 109.0235 0004890 100.9766 259.2050 15.76303114225831
LUDI TANCE 1-01B (L-SA*)
1 51822U 22018A   26062.19787716  .00000153  00000+0  22356-4 0  9993
2 51822  97.8121  71.1183 0001590  90.6645 269.4754 14.88415737217942
2022-019D               
1 51827U 22019D   26062.19024122  .00055212  00000+0  73005-3 0  9996
2 51827  97.3708 149.9939 0007289 164.3646 195.7836 15.58139450223130
JILIN-1 GAOFEN 03D14    
1 51831U 22019H   26062.19997414  .00192747  00000+0  11680-2 0  9999
2 51831  97.3712 155.0130 0004875 165.1836 194.9574 15.76994952223450
2022-019J               
1 51832U 22019J   26062.16613103  .00002659  00000+0  12677-3 0  9997
2 51832  97.3556 127.6926 0007448 233.0347 127.0207 15.19929062221697
JILIN-1 GAOFEN 03D16    
1 51834U 22019L   26062.20634617  .00256257  00000+0  11725-2 0  9994
2 51834  97.3706 156.2766 0003963 190.2782 169.8407 15.83044167223548
JILIN-1 GAOFEN 03D11    
1 51835U 22019M   26061.37468104  .00164086  00000+0  11142-2 0  9999
2 51835  97.3752 154.1406 0004513 181.9574 178.1674 15.74455890223319
